*******************************************************************************
 Revised: Sep 10, 2019             Cressida / (Uranus)                      709

 SATELLITE PHYSICAL PROPERTIES:
  Radius (km)           = 33 +- 4           Density (g cm^-3)   =
  Mass (10^20 kg )      =                   Geometric Albedo    =   0.07 
                                            V(1,0)              =  +9.5

 SATELLITE ORBITAL DATA:
  Semi-major axis, a (km) =  61.777 (10^3)  Orbital period      =  0.463570 d
  Eccentricity, e         =   0.000         Rotational period   = 
  Inclination, i  (deg)   =   0.0
*******************************************************************************
 
 
*******************************************************************************
Ephemeris / WWW_USER Thu Jun 18 11:35:43 2020 Pasadena, USA      / Horizons
*******************************************************************************
Target body name: Cressida (709)                  {source: ura115}
Center body name: Solar System Barycenter (0)     {source: DE431mx}
Center-site name: BODY CENTER
*******************************************************************************
Start time      : A.D. 2000-Jun-05 00:00:00.0000 TDB
Stop  time      : A.D. 2040-May-26 00:00:00.0000 TDB
Step-size       : 14400 minutes
*******************************************************************************
Center geodetic : 0.00000000,0.00000000,0.0000000 {E-lon(deg),Lat(deg),Alt(km)}
Center cylindric: 0.00000000,0.00000000,0.0000000 {E-lon(deg),Dxy(km),Dz(km)}
Center radii    : (undefined)                                                  
Output units    : AU-D
Output type     : GEOMETRIC cartesian states
Output format   : 3 (position, velocity, LT, range, range-rate)
Reference frame : Ecliptic of J2000.0
*******************************************************************************
JDTDB
   X     Y     Z
   VX    VY    VZ
   LT    RG    RR
*******************************************************************************
$$SOE
2454820.500000000 = A.D. 2008-Dec-20 00:00:00.0000 TDB 
 X = 1.987912537731899E+01 Y =-2.934057973846833E+00 Z =-2.687890863075898E-01
 VX=-4.074582341554813E-03 VY= 4.290749256908017E-03 VZ=-3.101864620711714E-03
 LT= 1.160664478595662E-01 RG= 2.009628248044847E+01 RR=-4.615514985519132E-03
2454830.500000000 = A.D. 2008-Dec-30 00:00:00.0000 TDB 
 X = 1.988428258437079E+01 Y =-2.896816531030247E+00 Z =-2.679774495806518E-01
 VX= 5.970056780990692E-03 VY= 2.630260713708822E-03 VZ= 8.053413315619838E-04
 LT= 1.160646490982964E-01 RG= 2.009597103458913E+01 RR= 5.517280048555753E-03
2454840.500000000 = A.D. 2009-Jan-09 00:00:00.0000 TDB 
 X = 1.988954293104102E+01 Y =-2.859815088728024E+00 Z =-2.687037529189475E-01
 VX=-4.633240874667084E-03 VY= 5.070116052436256E-03 VZ= 1.683535151902887E-03
 LT= 1.160641619928777E-01 RG= 2.009588669490035E+01 RR=-5.329698137458709E-03
2454850.500000000 = A.D. 2009-Jan-19 00:00:00.0000 TDB 
 X = 1.989523602115362E+01 Y =-2.822709375506420E+00 Z =-2.679466890997044E-01
 VX= 4.389209907363112E-03 VY= 2.340912367976021E-03 VZ=-3.801457289877232E-03
 LT= 1.160663516477731E-01 RG= 2.009626582189288E+01 RR= 4.067185435544160E-03
2454860.500000000 = A.D. 2009-Jan-29 00:00:00.0000 TDB 
 X = 1.989977127005276E+01 Y =-2.785511992899981E+00 Z =-2.683186379767618E-01
 VX=-1.271800354993272E-03 VY= 4.817630907340208E-03 VZ= 5.192845346081210E-03
 LT= 1.160623379351025E-01 RG= 2.009557086908687E+01 RR=-1.996531588336379E-03
2454870.500000000 = A.D. 2009-Feb-08 00:00:00.0000 TDB 
 X = 1.990568310626680E+01 Y =-2.748544923206196E+00 Z =-2.681377299364143E-01
 VX=-1.283413411603589E-04 VY= 3.089389104926153E-03 VZ=-5.519804934464871E-03
 LT= 1.160667420671111E-01 RG= 2.009633342090575E+01 RR=-4.760061769254980E-04
2454880.500000000 = A.D. 2009-Feb-18 00:00:00.0000 TDB 
 X = 1.990999868080213E+01 Y =-2.711216294144349E+00 Z =-2.678192624549493E-01
 VX= 3.444521536244946E-03 VY= 3.728518087254677E-03 VZ= 4.765434088579506E-03
 LT= 1.160621223637367E-01 RG= 2.009553354406193E+01 RR= 2.846171020200373E-03
2454890.500000000 = A.D. 2009-Feb-28 00:00:00.0000 TDB 
 X = 1.991553458661808E+01 Y =-2.674270224275073E+00 Z =-2.682980594864275E-01
 VX=-4.164626022890901E-03 VY= 4.310216766458907E-03 VZ=-3.040220957499877E-03
 LT= 1.160652484813569E-01 RG= 2.009607481454897E+01 RR=-4.660201230282909E-03
2454900.500000000 = A.D. 2009-Mar-10 00:00:00.0000 TDB 
 X = 1.992019337452485E+01 Y =-2.636959302727766E+00 Z =-2.674760949647725E-01
 VX= 5.927196028160721E-03 VY= 2.629246771756278E-03 VZ= 7.294890571339599E-04
 LT= 1.160633773720103E-01 RG= 2.009575084200846E+01 RR= 5.520697101771875E-03
2454910.500000000 = A.D. 2009-Mar-20 00:00:00.0000 TDB 
 X = 1.992493464421780E+01 Y =-2.599885736228166E+00 Z =-2.681945196862777E-01
 VX=-4.661697425350627E-03 VY= 5.079482767213452E-03 VZ= 1.754835806505490E-03
 LT= 1.160626808293617E-01 RG= 2.009563023938744E+01 RR=-5.302681598038145E-03
2454920.500000000 = A.D. 2009-Mar-30 00:00:00.0000 TDB 
 X = 1.993012800968963E+01 Y =-2.562712902766516E+00 Z =-2.674360075446043E-01
 VX= 4.283972814965249E-03 VY= 2.352183031722267E-03 VZ=-3.854066062022461E-03
 LT= 1.160647885000020E-01 RG= 2.009599517124625E+01 RR= 3.999944871736364E-03
2454930.500000000 = A.D. 2009-Apr-09 00:00:00.0000 TDB 
 X = 1.993414840526970E+01 Y =-2.525445361238946E+00 Z =-2.677921054859466E-01
 VX=-1.252987562754356E-03 VY= 4.815664966929596E-03 VZ= 5.221252985104579E-03
 LT= 1.160605978394601E-01 RG= 2.009526958086605E+01 RR=-1.917722424822074E-03
2454940.500000000 = A.D. 2009-Apr-19 00:00:00.0000 TDB 
 X = 1.993955247651460E+01 Y =-2.488412354782736E+00 Z =-2.676152681452169E-01
 VX=-2.525728575404849E-04 VY= 3.109076277490622E-03 VZ=-5.509494269972334E-03
 LT= 1.160648668184065E-01 RG= 2.009600873165763E+01 RR=-5.622225254977878E-04
2454950.500000000 = A.D. 2009-Apr-29 00:00:00.0000 TDB 
 X = 1.994336274607309E+01 Y =-2.451016873698291E+00 Z =-2.672796987368746E-01
 VX= 3.458314615945465E-03 VY= 3.720285108990876E-03 VZ= 4.727545739305402E-03
 LT= 1.160601351488854E-01 RG= 2.009518946847644E+01 RR= 2.915541771312166E-03
2454960.500000000 = A.D. 2009-May-09 00:00:00.0000 TDB 
 X = 1.994838163304770E+01 Y =-2.414005041255808E+00 Z =-2.677591199452239E-01
 VX=-4.252528943732555E-03 VY= 4.329968241495472E-03 VZ=-2.976962296147310E-03
 LT= 1.160630674335915E-01 RG= 2.009569717783479E+01 RR=-4.701828744627799E-03
2454970.500000000 = A.D. 2009-May-19 00:00:00.0000 TDB 
 X = 1.995254103684665E+01 Y =-2.376630811031609E+00 Z =-2.669268861514969E-01
 VX= 5.884303465949014E-03 VY= 2.624531485124274E-03 VZ= 6.540404111604404E-04
 LT= 1.160611235447717E-01 RG= 2.009536060391913E+01 RR= 5.523398420306156E-03
2454980.500000000 = A.D. 2009-May-29 00:00:00.0000 TDB 
 X = 1.995676218917921E+01 Y =-2.339491974235769E+00 Z =-2.676375613834374E-01
 VX=-4.687433232334809E-03 VY= 5.091285905013186E-03 VZ= 1.824312909617249E-03
 LT= 1.160602170404885E-01 RG= 2.009520364756798E+01 RR=-5.272166897389553E-03
2454990.500000000 = A.D. 2009-Jun-08 00:00:00.0000 TDB 
 X = 1.996145508034169E+01 Y =-2.302258826463861E+00 Z =-2.668778622795676E-01
 VX= 4.177111437026671E-03 VY= 2.359468088007259E-03 VZ=-3.907149058796374E-03
 LT= 1.160622430731688E-01 RG= 2.009555444425220E+01 RR= 3.930812055570210E-03
2455000.500000000 = A.D. 2009-Jun-18 00:00:00.0000 TDB 
 X = 1.996496001233670E+01 Y =-2.264927420072953E+00 Z =-2.672179055377972E-01
 VX=-1.234718195649172E-03 VY= 4.814855017134486E-03 VZ= 5.247149582161106E-03
 LT= 1.160578775582353E-01 RG= 2.009479857877262E+01 RR=-1.839208725140155E-03
2455010.500000000 = A.D. 2009-Jun-28 00:00:00.0000 TDB 
 X = 1.996985485113093E+01 Y =-2.227835523412676E+00 Z =-2.670450250066027E-01
 VX=-3.783711216253009E-04 VY= 3.128669588047356E-03 VZ=-5.498204769601726E-03
 LT= 1.160620071896925E-01 RG= 2.009551360229436E+01 RR=-6.497922698680911E-04
2455020.500000000 = A.D. 2009-Jul-08 00:00:00.0000 TDB 
 X = 1.997315907700651E+01 Y =-2.190379377993926E+00 Z =-2.666927157886111E-01
 VX= 3.469719156027350E-03 VY= 3.709717304988964E-03 VZ= 4.690257079710198E-03
 LT= 1.160571648304200E-01 RG= 2.009467517377684E+01 RR= 2.982118718331009E-03
2455030.500000000 = A.D. 2009-Jul-18 00:00:00.0000 TDB 
 X = 1.997766013053501E+01 Y =-2.153308779454821E+00 Z =-2.671726398140363E-01
 VX=-4.339116077912397E-03 VY= 4.352661808106016E-03 VZ=-2.912037063904643E-03
 LT= 1.160599029856888E-01 RG= 2.009514927066506E+01 RR=-4.741442486638131E-03
2455040.500000000 = A.D. 2009-Jul-28 00:00:00.0000 TDB 
 X = 1.998131943729884E+01 Y =-2.115877826713125E+00 Z =-2.663299447636840E-01
 VX= 5.840656376235414E-03 VY= 2.615573262837204E-03 VZ= 5.801201317717478E-04
 LT= 1.160578872082885E-01 RG= 2.009480024962753E+01 RR= 5.524577630249488E-03
2455050.500000000 = A.D. 2009-Aug-07 00:00:00.0000 TDB 
 X = 1.998501948534004E+01 Y =-2.078680064524793E+00 Z =-2.670327245184156E-01
 VX=-4.710080694872956E-03 VY= 5.104580004114585E-03 VZ= 1.893181341740546E-03
 LT= 1.160567697452049E-01 RG= 2.009460676689239E+01 RR=-5.237593636416984E-03
2455060.500000000 = A.D. 2009-Aug-17 00:00:00.0000 TDB 
 X = 1.998921089334668E+01 Y =-2.041393743760223E+00 Z =-2.662721672358103E-01
 VX= 4.070393759507337E-03 VY= 2.365008541882114E-03 VZ=-3.960462929977644E-03
 LT= 1.160587127074834E-01 RG= 2.009494318038240E+01 RR= 3.861200600944544E-03
2455070.500000000 = A.D. 2009-Aug-27 00:00:00.0000 TDB 
 X = 1.999220008523950E+01 Y =-2.004004682790329E+00 Z =-2.665962077195229E-01
 VX=-1.216511704475953E-03 VY= 4.811757675588533E-03 VZ= 5.270437099373527E-03
 LT= 1.160541759905235E-01 RG= 2.009415767219084E+01 RR=-1.760143890426226E-03
